{
  "type": "FeatureCollection",
  "features": [
    {
      "type": "Feature",
      "properties": {
        "norad_id": 44334,
        "name": "EUTELSAT 7C",
        "group": "eutelsat",
        "lat": 0.024471773940786947,
        "lon": -19.010127889429466,
        "alt_km": 35788.252693162765,
        "timestamp": "2025-12-10T16:57:11.306102+00:00",
        "meta_object_name": "EUTELSAT 7C",
        "meta_object_id": "2019-034B",
        "meta_epoch": "2025-12-10T00:54:38.687328",
        "meta_mean_motion": 1.00271046,
        "meta_eccentricity": 0.00033552,
        "meta_inclination": 0.0729,
        "meta_ra_of_asc_node": 178.2937,
        "meta_arg_of_pericenter": 64.3773,
        "meta_mean_anomaly": 216.9906,
        "meta_ephemeris_type": 0,
        "meta_classification_type": "U",
        "meta_norad_cat_id": 44334,
        "meta_element_set_no": 999,
        "meta_rev_at_epoch": 493,
        "meta_bstar": 0,
        "meta_mean_motion_dot": 5.1e-07,
        "meta_mean_motion_ddot": 0,
        "tle_line1": "1 44334U 19034B   25344.03794777  .00000051  00000+0  00000+0 0  9991",
        "tle_line2": "2 44334   0.0729 178.2937 0003355  64.3773 216.9906  1.00271046  4931"
      },
      "geometry": {
        "type": "Point",
        "coordinates": [
          -19.010127889429466,
          0.024471773940786947
        ]
      }
    },
    {
      "type": "Feature",
      "properties": {
        "norad_id": 44624,
        "name": "EUTELSAT 5 WEST B",
        "group": "eutelsat",
        "lat": -0.02022335158448078,
        "lon": -30.992160999851166,
        "alt_km": 35780.93390701891,
        "timestamp": "2025-12-10T16:57:11.306113+00:00",
        "meta_object_name": "EUTELSAT 5 WEST B",
        "meta_object_id": "2019-067A",
        "meta_epoch": "2025-12-10T06:29:38.861088",
        "meta_mean_motion": 1.00271337,
        "meta_eccentricity": 0.0003466,
        "meta_inclination": 0.0636,
        "meta_ra_of_asc_node": 343.945,
        "meta_arg_of_pericenter": 276.083,
        "meta_mean_anomaly": 271.632,
        "meta_ephemeris_type": 0,
        "meta_classification_type": "U",
        "meta_norad_cat_id": 44624,
        "meta_element_set_no": 999,
        "meta_rev_at_epoch": 2254,
        "meta_bstar": 0,
        "meta_mean_motion_dot": -3.9e-07,
        "meta_mean_motion_ddot": 0,
        "tle_line1": "1 44624U 19067A   25344.27058867 -.00000039  00000+0  00000+0 0  9995",
        "tle_line2": "2 44624   0.0636 343.9450 0003466 276.0830 271.6320  1.00271337 22548"
      },
      "geometry": {
        "type": "Point",
        "coordinates": [
          -30.992160999851166,
          -0.02022335158448078
        ]
      }
    },
    {
      "type": "Feature",
      "properties": {
        "norad_id": 45027,
        "name": "EUTELSAT KONNECT",
        "group": "eutelsat",
        "lat": -0.06449035868572137,
        "lon": -18.832521986975824,
        "alt_km": 35782.62724073758,
        "timestamp": "2025-12-10T16:57:11.306125+00:00",
        "meta_object_name": "EUTELSAT KONNECT",
        "meta_object_id": "2020-005B",
        "meta_epoch": "2025-12-10T00:54:38.687328",
        "meta_mean_motion": 1.00268676,
        "meta_eccentricity": 0.00017287,
        "meta_inclination": 0.0718,
        "meta_ra_of_asc_node": 96.1497,
        "meta_arg_of_pericenter": 191.1313,
        "meta_mean_anomaly": 172.586,
        "meta_ephemeris_type": 0,
        "meta_classification_type": "U",
        "meta_norad_cat_id": 45027,
        "meta_element_set_no": 999,
        "meta_rev_at_epoch": 2244,
        "meta_bstar": 0,
        "meta_mean_motion_dot": 5.2e-07,
        "meta_mean_motion_ddot": 0,
        "tle_line1": "1 45027U 20005B   25344.03794777  .00000052  00000+0  00000+0 0  9992",
        "tle_line2": "2 45027   0.0718  96.1497 0001728 191.1313 172.5860  1.00268676 22446"
      },
      "geometry": {
        "type": "Point",
        "coordinates": [
          -18.832521986975824,
          -0.06449035868572137
        ]
      }
    },
    {
      "type": "Feature",
      "properties": {
        "norad_id": 49056,
        "name": "EUTELSAT QUANTUM",
        "group": "eutelsat",
        "lat": 0.009133501172074182,
        "lon": 21.70934579959178,
        "alt_km": 35791.460123868594,
        "timestamp": "2025-12-10T16:57:11.306136+00:00",
        "meta_object_name": "EUTELSAT QUANTUM",
        "meta_object_id": "2021-069B",
        "meta_epoch": "2025-12-10T04:24:38.914272",
        "meta_mean_motion": 1.00271276,
        "meta_eccentricity": 0.0003726,
        "meta_inclination": 0.0161,
        "meta_ra_of_asc_node": 19.5087,
        "meta_arg_of_pericenter": 252.6452,
        "meta_mean_anomaly": 280.869,
        "meta_ephemeris_type": 0,
        "meta_classification_type": "U",
        "meta_norad_cat_id": 49056,
        "meta_element_set_no": 999,
        "meta_rev_at_epoch": 1603,
        "meta_bstar": 0,
        "meta_mean_motion_dot": 1.29e-06,
        "meta_mean_motion_ddot": 0,
        "tle_line1": "1 49056U 21069B   25344.18378373  .00000129  00000+0  00000+0 0  9990",
        "tle_line2": "2 49056   0.0161  19.5087 0003726 252.6452 280.8690  1.00271276 16037"
      },
      "geometry": {
        "type": "Point",
        "coordinates": [
          21.70934579959178,
          0.009133501172074182
        ]
      }
    },
    {
      "type": "Feature",
      "properties": {
        "norad_id": 53765,
        "name": "EUTELSAT KONNECT VHTS",
        "group": "eutelsat",
        "lat": -0.054645989023132904,
        "lon": -23.294030842178312,
        "alt_km": 35787.85273820784,
        "timestamp": "2025-12-10T16:57:11.306148+00:00",
        "meta_object_name": "EUTELSAT KONNECT VHTS",
        "meta_object_id": "2022-110A",
        "meta_epoch": "2025-12-10T06:29:38.861088",
        "meta_mean_motion": 1.00271134,
        "meta_eccentricity": 0.0002566,
        "meta_inclination": 0.0653,
        "meta_ra_of_asc_node": 101.0949,
        "meta_arg_of_pericenter": 136.9321,
        "meta_mean_anomaly": 301.3392,
        "meta_ephemeris_type": 0,
        "meta_classification_type": "U",
        "meta_norad_cat_id": 53765,
        "meta_element_set_no": 999,
        "meta_rev_at_epoch": 493,
        "meta_bstar": 0,
        "meta_mean_motion_dot": 2.1e-07,
        "meta_mean_motion_ddot": 0,
        "tle_line1": "1 53765U 22110A   25344.27058867  .00000021  00000+0  00000+0 0  9994",
        "tle_line2": "2 53765   0.0653 101.0949 0002566 136.9321 301.3392  1.00271134  4936"
      },
      "geometry": {
        "type": "Point",
        "coordinates": [
          -23.294030842178312,
          -0.054645989023132904
        ]
      }
    },
    {
      "type": "Feature",
      "properties": {
        "norad_id": 54048,
        "name": "EUTELSAT HOTBIRD 13F",
        "group": "eutelsat",
        "lat": 0.04419559456138498,
        "lon": -13.016045609422648,
        "alt_km": 35778.20737504847,
        "timestamp": "2025-12-10T16:57:11.306160+00:00",
        "meta_object_name": "EUTELSAT HOTBIRD 13F",
        "meta_object_id": "2022-134A",
        "meta_epoch": "2025-12-10T06:13:38.752320",
        "meta_mean_motion": 1.0027045,
        "meta_eccentricity": 0.0001975,
        "meta_inclination": 0.0508,
        "meta_ra_of_asc_node": 290.7601,
        "meta_arg_of_pericenter": 64.7163,
        "meta_mean_anomaly": 190.1902,
        "meta_ephemeris_type": 0,
        "meta_classification_type": "U",
        "meta_norad_cat_id": 54048,
        "meta_element_set_no": 999,
        "meta_rev_at_epoch": 1148,
        "meta_bstar": 0,
        "meta_mean_motion_dot": 9e-07,
        "meta_mean_motion_ddot": 0,
        "tle_line1": "1 54048U 22134A   25344.25947630  .00000090  00000+0  00000+0 0  9994",
        "tle_line2": "2 54048   0.0508 290.7601 0001975  64.7163 190.1902  1.00270450 11485"
      },
      "geometry": {
        "type": "Point",
        "coordinates": [
          -13.016045609422648,
          0.04419559456138498
        ]
      }
    },
    {
      "type": "Feature",
      "properties": {
        "norad_id": 54225,
        "name": "EUTELSAT HOTBIRD 13G",
        "group": "eutelsat",
        "lat": 0.04633839660462208,
        "lon": -13.036231869801094,
        "alt_km": 35794.61381729581,
        "timestamp": "2025-12-10T16:57:11.306171+00:00",
        "meta_object_name": "EUTELSAT HOTBIRD 13G",
        "meta_object_id": "2022-146A",
        "meta_epoch": "2025-12-10T06:13:38.752320",
        "meta_mean_motion": 1.00268356,
        "meta_eccentricity": 0.0001886,
        "meta_inclination": 0.0515,
        "meta_ra_of_asc_node": 237.9533,
        "meta_arg_of_pericenter": 304.8699,
        "meta_mean_anomaly": 2.8172,
        "meta_ephemeris_type": 0,
        "meta_classification_type": "U",
        "meta_norad_cat_id": 54225,
        "meta_element_set_no": 999,
        "meta_rev_at_epoch": 557,
        "meta_bstar": 0,
        "meta_mean_motion_dot": 9e-07,
        "meta_mean_motion_ddot": 0,
        "tle_line1": "1 54225U 22146A   25344.25947630  .00000090  00000+0  00000+0 0  9994",
        "tle_line2": "2 54225   0.0515 237.9533 0001886 304.8699   2.8172  1.00268356  5573"
      },
      "geometry": {
        "type": "Point",
        "coordinates": [
          -13.036231869801094,
          0.04633839660462208
        ]
      }
    }
  ]
}